[{"OBJECT_NAME":"STARLINK-36780","OBJECT_ID":"2026-034S","EPOCH":"2026-03-04T10:00:01.999584","MEAN_MOTION":15.80799358,"ECCENTRICITY":0.0001403,"INCLINATION":53.1597,"RA_OF_ASC_NODE":237.6386,"ARG_OF_PERICENTER":53.9192,"MEAN_ANOMALY":348.947,"EPHEMERIS_TYPE":0,"CLASSIFICATION_TYPE":"U","NORAD_CAT_ID":67866,"ELEMENT_SET_NO":999,"REV_AT_EPOCH":301,"BSTAR":0.00041735,"MEAN_MOTION_DOT":0.00082179,"MEAN_MOTION_DDOT":0},{"OBJECT_NAME":"STARLINK-36761","OBJECT_ID":"2026-034T","EPOCH":"2026-03-04T10:00:01.999584","MEAN_MOTION":15.80798566,"ECCENTRICITY":5.91e-5,"INCLINATION":53.1627,"RA_OF_ASC_NODE":237.6297,"ARG_OF_PERICENTER":108.1996,"MEAN_ANOMALY":298.9431,"EPHEMERIS_TYPE":0,"CLASSIFICATION_TYPE":"U","NORAD_CAT_ID":67867,"ELEMENT_SET_NO":999,"REV_AT_EPOCH":301,"BSTAR":0.00029855,"MEAN_MOTION_DOT":0.00058421,"MEAN_MOTION_DDOT":0},{"OBJECT_NAME":"STARLINK-36762","OBJECT_ID":"2026-034U","EPOCH":"2026-03-04T10:00:01.999584","MEAN_MOTION":15.80783318,"ECCENTRICITY":0.0001284,"INCLINATION":53.1596,"RA_OF_ASC_NODE":237.6211,"ARG_OF_PERICENTER":86.9124,"MEAN_ANOMALY":324.4953,"EPHEMERIS_TYPE":0,"CLASSIFICATION_TYPE":"U","NORAD_CAT_ID":67868,"ELEMENT_SET_NO":999,"REV_AT_EPOCH":301,"BSTAR":0.00060116,"MEAN_MOTION_DOT":0.00119105,"MEAN_MOTION_DDOT":0},{"OBJECT_NAME":"STARLINK-36779","OBJECT_ID":"2026-034V","EPOCH":"2026-03-04T10:00:01.999584","MEAN_MOTION":15.80786243,"ECCENTRICITY":0.0001471,"INCLINATION":53.1597,"RA_OF_ASC_NODE":237.6118,"ARG_OF_PERICENTER":71.222,"MEAN_ANOMALY":344.4681,"EPHEMERIS_TYPE":0,"CLASSIFICATION_TYPE":"U","NORAD_CAT_ID":67869,"ELEMENT_SET_NO":999,"REV_AT_EPOCH":301,"BSTAR":0.00045397,"MEAN_MOTION_DOT":0.00089473,"MEAN_MOTION_DDOT":0},{"OBJECT_NAME":"STARLINK-36770","OBJECT_ID":"2026-034W","EPOCH":"2026-03-04T10:00:01.999584","MEAN_MOTION":15.80752911,"ECCENTRICITY":1.47e-5,"INCLINATION":53.1596,"RA_OF_ASC_NODE":237.594,"ARG_OF_PERICENTER":11.1037,"MEAN_ANOMALY":53.1404,"EPHEMERIS_TYPE":0,"CLASSIFICATION_TYPE":"U","NORAD_CAT_ID":67870,"ELEMENT_SET_NO":999,"REV_AT_EPOCH":301,"BSTAR":0.00069351,"MEAN_MOTION_DOT":0.00137616,"MEAN_MOTION_DDOT":0},{"OBJECT_NAME":"STARLINK-36769","OBJECT_ID":"2026-034X","EPOCH":"2026-03-04T10:00:01.999584","MEAN_MOTION":15.80838506,"ECCENTRICITY":0.0001117,"INCLINATION":53.1595,"RA_OF_ASC_NODE":237.6029,"ARG_OF_PERICENTER":57.3454,"MEAN_ANOMALY":2.6004,"EPHEMERIS_TYPE":0,"CLASSIFICATION_TYPE":"U","NORAD_CAT_ID":67871,"ELEMENT_SET_NO":999,"REV_AT_EPOCH":301,"BSTAR":5.8919e-5,"MEAN_MOTION_DOT":0.00010926,"MEAN_MOTION_DDOT":0},{"OBJECT_NAME":"STARLINK-36786","OBJECT_ID":"2026-034Y","EPOCH":"2026-03-04T10:00:01.999584","MEAN_MOTION":15.80830849,"ECCENTRICITY":9.0e-5,"INCLINATION":53.1624,"RA_OF_ASC_NODE":237.5858,"ARG_OF_PERICENTER":67.0232,"MEAN_ANOMALY":1.4608,"EPHEMERIS_TYPE":0,"CLASSIFICATION_TYPE":"U","NORAD_CAT_ID":67872,"ELEMENT_SET_NO":999,"REV_AT_EPOCH":301,"BSTAR":0.00014725,"MEAN_MOTION_DOT":0.00028402,"MEAN_MOTION_DDOT":0},{"OBJECT_NAME":"STARLINK-36783","OBJECT_ID":"2026-034Z","EPOCH":"2026-03-04T10:00:01.999584","MEAN_MOTION":15.80788674,"ECCENTRICITY":0.0001266,"INCLINATION":53.1625,"RA_OF_ASC_NODE":237.5762,"ARG_OF_PERICENTER":113.0185,"MEAN_ANOMALY":319.7471,"EPHEMERIS_TYPE":0,"CLASSIFICATION_TYPE":"U","NORAD_CAT_ID":67873,"ELEMENT_SET_NO":999,"REV_AT_EPOCH":301,"BSTAR":0.00047148,"MEAN_MOTION_DOT":0.00092999,"MEAN_MOTION_DDOT":0},{"OBJECT_NAME":"STARLINK-36730","OBJECT_ID":"2026-034AA","EPOCH":"2026-03-04T10:00:01.999584","MEAN_MOTION":15.80774998,"ECCENTRICITY":0.0001182,"INCLINATION":53.1596,"RA_OF_ASC_NODE":237.5679,"ARG_OF_PERICENTER":69.0715,"MEAN_ANOMALY":7.9744,"EPHEMERIS_TYPE":0,"CLASSIFICATION_TYPE":"U","NORAD_CAT_ID":67874,"ELEMENT_SET_NO":999,"REV_AT_EPOCH":301,"BSTAR":0.00060513,"MEAN_MOTION_DOT":0.00119859,"MEAN_MOTION_DDOT":0},{"OBJECT_NAME":"STARLINK-36727","OBJECT_ID":"2026-034AB","EPOCH":"2026-03-04T10:00:01.999584","MEAN_MOTION":15.80842047,"ECCENTRICITY":0.0001075,"INCLINATION":53.1596,"RA_OF_ASC_NODE":237.5585,"ARG_OF_PERICENTER":94.9024,"MEAN_ANOMALY":346.3635,"EPHEMERIS_TYPE":0,"CLASSIFICATION_TYPE":"U","NORAD_CAT_ID":67875,"ELEMENT_SET_NO":999,"REV_AT_EPOCH":301,"BSTAR":0.00030904,"MEAN_MOTION_DOT":0.00060638,"MEAN_MOTION_DDOT":0},{"OBJECT_NAME":"STARLINK-36743","OBJECT_ID":"2026-034AC","EPOCH":"2026-03-04T10:00:01.999584","MEAN_MOTION":15.8079974,"ECCENTRICITY":0.0001502,"INCLINATION":53.1595,"RA_OF_ASC_NODE":237.5491,"ARG_OF_PERICENTER":137.6252,"MEAN_ANOMALY":307.9646,"EPHEMERIS_TYPE":0,"CLASSIFICATION_TYPE":"U","NORAD_CAT_ID":67876,"ELEMENT_SET_NO":999,"REV_AT_EPOCH":301,"BSTAR":0.00040969,"MEAN_MOTION_DOT":0.00080646,"MEAN_MOTION_DDOT":0},{"OBJECT_NAME":"STARLINK-36784","OBJECT_ID":"2026-034AD","EPOCH":"2026-03-04T10:00:01.999584","MEAN_MOTION":15.80871399,"ECCENTRICITY":7.45e-5,"INCLINATION":53.1594,"RA_OF_ASC_NODE":237.5403,"ARG_OF_PERICENTER":93.2153,"MEAN_ANOMALY":356.745,"EPHEMERIS_TYPE":0,"CLASSIFICATION_TYPE":"U","NORAD_CAT_ID":67877,"ELEMENT_SET_NO":999,"REV_AT_EPOCH":301,"BSTAR":-0.00077279,"MEAN_MOTION_DOT":-0.00150578,"MEAN_MOTION_DDOT":0},{"OBJECT_NAME":"STARLINK-36689","OBJECT_ID":"2026-034AE","EPOCH":"2026-03-04T10:00:01.999584","MEAN_MOTION":15.80801125,"ECCENTRICITY":0.0001316,"INCLINATION":53.1593,"RA_OF_ASC_NODE":237.5321,"ARG_OF_PERICENTER":76.5293,"MEAN_ANOMALY":17.5905,"EPHEMERIS_TYPE":0,"CLASSIFICATION_TYPE":"U","NORAD_CAT_ID":67878,"ELEMENT_SET_NO":999,"REV_AT_EPOCH":301,"BSTAR":0.00033197,"MEAN_MOTION_DOT":0.00065099,"MEAN_MOTION_DDOT":0},{"OBJECT_NAME":"STARLINK-36818","OBJECT_ID":"2026-035A","EPOCH":"2026-03-04T10:00:01.999584","MEAN_MOTION":15.98857491,"ECCENTRICITY":0.0001232,"INCLINATION":97.278,"RA_OF_ASC_NODE":355.3387,"ARG_OF_PERICENTER":103.5056,"MEAN_ANOMALY":93.0266,"EPHEMERIS_TYPE":0,"CLASSIFICATION_TYPE":"U","NORAD_CAT_ID":67879,"ELEMENT_SET_NO":999,"REV_AT_EPOCH":290,"BSTAR":-0.0021899,"MEAN_MOTION_DOT":-0.01037168,"MEAN_MOTION_DDOT":0.00034626},{"OBJECT_NAME":"STARLINK-36821","OBJECT_ID":"2026-035B","EPOCH":"2026-03-04T10:00:01.999584","MEAN_MOTION":15.99018346,"ECCENTRICITY":0.0001231,"INCLINATION":97.2776,"RA_OF_ASC_NODE":355.3415,"ARG_OF_PERICENTER":107.9729,"MEAN_ANOMALY":94.9057,"EPHEMERIS_TYPE":0,"CLASSIFICATION_TYPE":"U","NORAD_CAT_ID":67880,"ELEMENT_SET_NO":999,"REV_AT_EPOCH":290,"BSTAR":-0.002165,"MEAN_MOTION_DOT":-0.01034653,"MEAN_MOTION_DDOT":0.00034532},{"OBJECT_NAME":"STARLINK-36808","OBJECT_ID":"2026-035C","EPOCH":"2026-03-04T10:00:01.999584","MEAN_MOTION":15.98938097,"ECCENTRICITY":0.0001596,"INCLINATION":97.2777,"RA_OF_ASC_NODE":355.3396,"ARG_OF_PERICENTER":118.9808,"MEAN_ANOMALY":79.9522,"EPHEMERIS_TYPE":0,"CLASSIFICATION_TYPE":"U","NORAD_CAT_ID":67881,"ELEMENT_SET_NO":999,"REV_AT_EPOCH":290,"BSTAR":-0.0022362,"MEAN_MOTION_DOT":-0.01063697,"MEAN_MOTION_DDOT":0.00036317},{"OBJECT_NAME":"STARLINK-36817","OBJECT_ID":"2026-035D","EPOCH":"2026-03-04T10:00:01.999584","MEAN_MOTION":15.99181969,"ECCENTRICITY":0.0001211,"INCLINATION":97.2769,"RA_OF_ASC_NODE":355.3444,"ARG_OF_PERICENTER":103.419,"MEAN_ANOMALY":107.1779,"EPHEMERIS_TYPE":0,"CLASSIFICATION_TYPE":"U","NORAD_CAT_ID":67882,"ELEMENT_SET_NO":999,"REV_AT_EPOCH":290,"BSTAR":-0.0021714,"MEAN_MOTION_DOT":-0.01047133,"MEAN_MOTION_DDOT":0.00035372},{"OBJECT_NAME":"STARLINK-36856","OBJECT_ID":"2026-035E","EPOCH":"2026-03-04T10:00:01.999584","MEAN_MOTION":15.99099474,"ECCENTRICITY":0.0001139,"INCLINATION":97.2773,"RA_OF_ASC_NODE":355.3431,"ARG_OF_PERICENTER":101.0817,"MEAN_ANOMALY":105.9219,"EPHEMERIS_TYPE":0,"CLASSIFICATION_TYPE":"U","NORAD_CAT_ID":67883,"ELEMENT_SET_NO":999,"REV_AT_EPOCH":290,"BSTAR":-0.0021467,"MEAN_MOTION_DOT":-0.01030592,"MEAN_MOTION_DDOT":0.00034313},{"OBJECT_NAME":"STARLINK-36842","OBJECT_ID":"2026-035F","EPOCH":"2026-03-04T10:00:01.999584","MEAN_MOTION":15.99380909,"ECCENTRICITY":0.0001276,"INCLINATION":97.2768,"RA_OF_ASC_NODE":355.3459,"ARG_OF_PERICENTER":107.2946,"MEAN_ANOMALY":106.6326,"EPHEMERIS_TYPE":0,"CLASSIFICATION_TYPE":"U","NORAD_CAT_ID":67884,"ELEMENT_SET_NO":999,"REV_AT_EPOCH":290,"BSTAR":-0.0025813,"MEAN_MOTION_DOT":-0.01256638,"MEAN_MOTION_DDOT":0.0004968},{"OBJECT_NAME":"STARLINK-36826","OBJECT_ID":"2026-035G","EPOCH":"2026-03-04T10:00:01.999584","MEAN_MOTION":15.993381,"ECCENTRICITY":0.0001188,"INCLINATION":97.2768,"RA_OF_ASC_NODE":355.3472,"ARG_OF_PERICENTER":104.9467,"MEAN_ANOMALY":111.6565,"EPHEMERIS_TYPE":0,"CLASSIFICATION_TYPE":"U","NORAD_CAT_ID":67885,"ELEMENT_SET_NO":999,"REV_AT_EPOCH":290,"BSTAR":-0.0021465,"MEAN_MOTION_DOT":-0.01044258,"MEAN_MOTION_DDOT":0.00035253},{"OBJECT_NAME":"STARLINK-36390","OBJECT_ID":"2026-035H","EPOCH":"2026-03-04T12:05:00.802464","MEAN_MOTION":15.9959737,"ECCENTRICITY":9.27e-5,"INCLINATION":97.2758,"RA_OF_ASC_NODE":355.4426,"ARG_OF_PERICENTER":138.2335,"MEAN_ANOMALY":221.9014,"EPHEMERIS_TYPE":0,"CLASSIFICATION_TYPE":"U","NORAD_CAT_ID":67886,"ELEMENT_SET_NO":999,"REV_AT_EPOCH":301,"BSTAR":-0.00033772,"MEAN_MOTION_DOT":-0.00168061,"MEAN_MOTION_DDOT":1.2678e-5},{"OBJECT_NAME":"STARLINK-36368","OBJECT_ID":"2026-035J","EPOCH":"2026-03-04T12:04:02.180064","MEAN_MOTION":15.99776831,"ECCENTRICITY":0.0002224,"INCLINATION":97.2761,"RA_OF_ASC_NODE":355.4432,"ARG_OF_PERICENTER":162.8083,"MEAN_ANOMALY":197.3271,"EPHEMERIS_TYPE":0,"CLASSIFICATION_TYPE":"U","NORAD_CAT_ID":67887,"ELEMENT_SET_NO":999,"REV_AT_EPOCH":301,"BSTAR":8.0996e-5,"MEAN_MOTION_DOT":0.00039849,"MEAN_MOTION_DDOT":2.888e-6},{"OBJECT_NAME":"STARLINK-36801","OBJECT_ID":"2026-035K","EPOCH":"2026-03-04T07:32:50.775648","MEAN_MOTION":16.00154873,"ECCENTRICITY":0.0001523,"INCLINATION":97.276,"RA_OF_ASC_NODE":355.2407,"ARG_OF_PERICENTER":194.0296,"MEAN_ANOMALY":166.0941,"EPHEMERIS_TYPE":0,"CLASSIFICATION_TYPE":"U","NORAD_CAT_ID":67888,"ELEMENT_SET_NO":999,"REV_AT_EPOCH":298,"BSTAR":-0.00027248,"MEAN_MOTION_DOT":-0.00140078,"MEAN_MOTION_DDOT":9.5757e-6}]
